[{"OBJECT_NAME":"ASTRA 2G","OBJECT_ID":"2014-089A","EPOCH":"2026-04-05T05:12:38.653056","MEAN_MOTION":1.00273844,"ECCENTRICITY":0.00049241,"INCLINATION":0.051,"RA_OF_ASC_NODE":3.2595,"ARG_OF_PERICENTER":42.3758,"MEAN_ANOMALY":254.2388,"EPHEMERIS_TYPE":0,"CLASSIFICATION_TYPE":"U","NORAD_CAT_ID":40364,"ELEMENT_SET_NO":999,"REV_AT_EPOCH":4123,"BSTAR":0,"MEAN_MOTION_DOT":1.51e-6,"MEAN_MOTION_DDOT":0},{"OBJECT_NAME":"FENGYUN 2G","OBJECT_ID":"2014-090A","EPOCH":"2026-04-05T06:01:51.715200","MEAN_MOTION":1.00291385,"ECCENTRICITY":0.0002385,"INCLINATION":5.4547,"RA_OF_ASC_NODE":73.684,"ARG_OF_PERICENTER":135.5167,"MEAN_ANOMALY":174.1867,"EPHEMERIS_TYPE":0,"CLASSIFICATION_TYPE":"U","NORAD_CAT_ID":40367,"ELEMENT_SET_NO":999,"REV_AT_EPOCH":4126,"BSTAR":0,"MEAN_MOTION_DOT":-3.0e-6,"MEAN_MOTION_DDOT":0},{"OBJECT_NAME":"INMARSAT 5-F2","OBJECT_ID":"2015-005A","EPOCH":"2026-04-05T02:12:54.047808","MEAN_MOTION":1.002684,"ECCENTRICITY":9.131e-5,"INCLINATION":0.0151,"RA_OF_ASC_NODE":193.9324,"ARG_OF_PERICENTER":186.166,"MEAN_ANOMALY":151.5245,"EPHEMERIS_TYPE":0,"CLASSIFICATION_TYPE":"U","NORAD_CAT_ID":40384,"ELEMENT_SET_NO":999,"REV_AT_EPOCH":4026,"BSTAR":0,"MEAN_MOTION_DOT":0,"MEAN_MOTION_DDOT":0},{"OBJECT_NAME":"ABS-3A","OBJECT_ID":"2015-010A","EPOCH":"2026-04-05T05:53:10.165920","MEAN_MOTION":1.00270748,"ECCENTRICITY":0.00013309,"INCLINATION":0.0101,"RA_OF_ASC_NODE":124.7009,"ARG_OF_PERICENTER":202.9253,"MEAN_ANOMALY":311.2319,"EPHEMERIS_TYPE":0,"CLASSIFICATION_TYPE":"U","NORAD_CAT_ID":40424,"ELEMENT_SET_NO":999,"REV_AT_EPOCH":4064,"BSTAR":0,"MEAN_MOTION_DOT":-2.5e-7,"MEAN_MOTION_DDOT":0},{"OBJECT_NAME":"EUTELSAT 115 WEST B","OBJECT_ID":"2015-010B","EPOCH":"2026-04-05T05:21:13.486464","MEAN_MOTION":1.00270619,"ECCENTRICITY":2.956e-5,"INCLINATION":0.0178,"RA_OF_ASC_NODE":55.2383,"ARG_OF_PERICENTER":213.1155,"MEAN_ANOMALY":250.5811,"EPHEMERIS_TYPE":0,"CLASSIFICATION_TYPE":"U","NORAD_CAT_ID":40425,"ELEMENT_SET_NO":999,"REV_AT_EPOCH":4066,"BSTAR":0,"MEAN_MOTION_DOT":-2.4e-7,"MEAN_MOTION_DDOT":0},{"OBJECT_NAME":"EXPRESS-AM7","OBJECT_ID":"2015-012A","EPOCH":"2026-04-05T06:05:23.993952","MEAN_MOTION":1.00270436,"ECCENTRICITY":0.0003124,"INCLINATION":0.0005,"RA_OF_ASC_NODE":176.1913,"ARG_OF_PERICENTER":192.6203,"MEAN_ANOMALY":316.0904,"EPHEMERIS_TYPE":0,"CLASSIFICATION_TYPE":"U","NORAD_CAT_ID":40505,"ELEMENT_SET_NO":999,"REV_AT_EPOCH":4027,"BSTAR":0,"MEAN_MOTION_DOT":1.52e-6,"MEAN_MOTION_DDOT":0},{"OBJECT_NAME":"BEIDOU-3S IGSO-1S","OBJECT_ID":"2015-019A","EPOCH":"2026-03-23T06:58:51.098016","MEAN_MOTION":1.00268843,"ECCENTRICITY":0.0036261,"INCLINATION":49.3559,"RA_OF_ASC_NODE":296.4949,"ARG_OF_PERICENTER":190.1236,"MEAN_ANOMALY":255.118,"EPHEMERIS_TYPE":0,"CLASSIFICATION_TYPE":"U","NORAD_CAT_ID":40549,"ELEMENT_SET_NO":999,"REV_AT_EPOCH":4021,"BSTAR":0,"MEAN_MOTION_DOT":-1.63e-6,"MEAN_MOTION_DDOT":0},{"OBJECT_NAME":"THOR 7","OBJECT_ID":"2015-022A","EPOCH":"2026-04-05T05:28:38.784288","MEAN_MOTION":1.0027226,"ECCENTRICITY":0.00027087,"INCLINATION":0.0269,"RA_OF_ASC_NODE":114.2541,"ARG_OF_PERICENTER":264.3808,"MEAN_ANOMALY":256.3935,"EPHEMERIS_TYPE":0,"CLASSIFICATION_TYPE":"U","NORAD_CAT_ID":40613,"ELEMENT_SET_NO":999,"REV_AT_EPOCH":4008,"BSTAR":0,"MEAN_MOTION_DOT":-7.0e-8,"MEAN_MOTION_DDOT":0},{"OBJECT_NAME":"TURKMENALEM52E/MONACOSAT","OBJECT_ID":"2015-023A","EPOCH":"2026-04-05T04:26:11.266368","MEAN_MOTION":1.00270574,"ECCENTRICITY":0.00031126,"INCLINATION":0.0218,"RA_OF_ASC_NODE":108.1516,"ARG_OF_PERICENTER":269.9803,"MEAN_ANOMALY":293.9188,"EPHEMERIS_TYPE":0,"CLASSIFICATION_TYPE":"U","NORAD_CAT_ID":40617,"ELEMENT_SET_NO":999,"REV_AT_EPOCH":4011,"BSTAR":0,"MEAN_MOTION_DOT":1.05e-6,"MEAN_MOTION_DDOT":0},{"OBJECT_NAME":"DIRECTV 15","OBJECT_ID":"2015-026A","EPOCH":"2026-04-05T03:20:38.727168","MEAN_MOTION":1.00272271,"ECCENTRICITY":3.776e-5,"INCLINATION":0.0332,"RA_OF_ASC_NODE":92.6431,"ARG_OF_PERICENTER":63.9851,"MEAN_ANOMALY":344.0959,"EPHEMERIS_TYPE":0,"CLASSIFICATION_TYPE":"U","NORAD_CAT_ID":40663,"ELEMENT_SET_NO":999,"REV_AT_EPOCH":3973,"BSTAR":0,"MEAN_MOTION_DOT":-1.01e-6,"MEAN_MOTION_DDOT":0},{"OBJECT_NAME":"SKY MEXICO-1","OBJECT_ID":"2015-026B","EPOCH":"2026-04-05T04:03:38.630304","MEAN_MOTION":1.00271759,"ECCENTRICITY":0.00026063,"INCLINATION":0.0191,"RA_OF_ASC_NODE":117.2639,"ARG_OF_PERICENTER":283.6419,"MEAN_ANOMALY":134.6689,"EPHEMERIS_TYPE":0,"CLASSIFICATION_TYPE":"U","NORAD_CAT_ID":40664,"ELEMENT_SET_NO":999,"REV_AT_EPOCH":3972,"BSTAR":0,"MEAN_MOTION_DOT":-2.33e-6,"MEAN_MOTION_DDOT":0},{"OBJECT_NAME":"METEOSAT-11 (MSG-4)","OBJECT_ID":"2015-034A","EPOCH":"2026-04-05T05:28:38.784288","MEAN_MOTION":1.00276148,"ECCENTRICITY":0.00017449,"INCLINATION":3.0186,"RA_OF_ASC_NODE":71.491,"ARG_OF_PERICENTER":284.9949,"MEAN_ANOMALY":288.5195,"EPHEMERIS_TYPE":0,"CLASSIFICATION_TYPE":"U","NORAD_CAT_ID":40732,"ELEMENT_SET_NO":999,"REV_AT_EPOCH":648,"BSTAR":0,"MEAN_MOTION_DOT":6.5e-7,"MEAN_MOTION_DDOT":0},{"OBJECT_NAME":"STAR ONE C4","OBJECT_ID":"2015-034B","EPOCH":"2026-04-05T04:17:04.083072","MEAN_MOTION":1.00270697,"ECCENTRICITY":0.00028141,"INCLINATION":0.0139,"RA_OF_ASC_NODE":46.3596,"ARG_OF_PERICENTER":329.9608,"MEAN_ANOMALY":171.4335,"EPHEMERIS_TYPE":0,"CLASSIFICATION_TYPE":"U","NORAD_CAT_ID":40733,"ELEMENT_SET_NO":999,"REV_AT_EPOCH":3928,"BSTAR":0,"MEAN_MOTION_DOT":0,"MEAN_MOTION_DDOT":0},{"OBJECT_NAME":"WGS F7 (USA 263)","OBJECT_ID":"2015-036A","EPOCH":"2026-04-05T03:18:32.753376","MEAN_MOTION":1.00271894,"ECCENTRICITY":0.0001434,"INCLINATION":0.0143,"RA_OF_ASC_NODE":223.5748,"ARG_OF_PERICENTER":260.5543,"MEAN_ANOMALY":293.9393,"EPHEMERIS_TYPE":0,"CLASSIFICATION_TYPE":"U","NORAD_CAT_ID":40746,"ELEMENT_SET_NO":999,"REV_AT_EPOCH":3913,"BSTAR":0,"MEAN_MOTION_DOT":1.9e-7,"MEAN_MOTION_DDOT":0},{"OBJECT_NAME":"INTELSAT 34 (IS-34)","OBJECT_ID":"2015-039A","EPOCH":"2026-04-05T02:12:46.560384","MEAN_MOTION":1.00273794,"ECCENTRICITY":5.8e-6,"INCLINATION":0.022,"RA_OF_ASC_NODE":270.2875,"ARG_OF_PERICENTER":41.2438,"MEAN_ANOMALY":219.5693,"EPHEMERIS_TYPE":0,"CLASSIFICATION_TYPE":"U","NORAD_CAT_ID":40874,"ELEMENT_SET_NO":999,"REV_AT_EPOCH":3889,"BSTAR":0,"MEAN_MOTION_DOT":-2.84e-6,"MEAN_MOTION_DDOT":0},{"OBJECT_NAME":"EUTELSAT 8 WEST B","OBJECT_ID":"2015-039B","EPOCH":"2026-04-05T05:51:40.309920","MEAN_MOTION":1.00272371,"ECCENTRICITY":0.00038078,"INCLINATION":0.0698,"RA_OF_ASC_NODE":10.8793,"ARG_OF_PERICENTER":4.7779,"MEAN_ANOMALY":257.8189,"EPHEMERIS_TYPE":0,"CLASSIFICATION_TYPE":"U","NORAD_CAT_ID":40875,"ELEMENT_SET_NO":999,"REV_AT_EPOCH":3892,"BSTAR":0,"MEAN_MOTION_DOT":-6.4e-7,"MEAN_MOTION_DDOT":0},{"OBJECT_NAME":"GSAT-6","OBJECT_ID":"2015-041A","EPOCH":"2026-04-05T02:52:12.779040","MEAN_MOTION":1.00270127,"ECCENTRICITY":0.00030265,"INCLINATION":1.7305,"RA_OF_ASC_NODE":83.4938,"ARG_OF_PERICENTER":299.1119,"MEAN_ANOMALY":296.404,"EPHEMERIS_TYPE":0,"CLASSIFICATION_TYPE":"U","NORAD_CAT_ID":40880,"ELEMENT_SET_NO":999,"REV_AT_EPOCH":3886,"BSTAR":0,"MEAN_MOTION_DOT":-1.58e-6,"MEAN_MOTION_DDOT":0}]
